STARLINK-1496
1 45780U 20038BC  26060.69720938  .00142608  00000+0  27822-2 0  9998
2 45780  53.0527 216.0186 0004819 179.4973 180.6039 15.46515685315770
